start=new Date('%Y-%m-41T00:00:00.000Z').valueOf();
sats=[{"APOAPSIS":"553.513","ARG_OF_PERICENTER":"95.2938","DECAY_DATE":null,"OBJECT_ID":"2021-040BA","FILE":"3100678","GP_ID":"183161079","RA_OF_ASC_NODE":"90.6390","CENTER_NAME":"EARTH","CLASSIFICATION_TYPE":"U","ECCENTRICITY":"0.00018960","OBJECT_TYPE":"PAYLOAD","TLE_LINE1":"1 48476U 21040BA  21233.16668981 -.00004768  00000-0 -31516-3 0  9998","TIME_SYSTEM":"UTC","BSTAR":"-0.00031516000000","SEMIMAJOR_AXIS":"6930.334","EPOCH":"2021-08-21T04:00:01.999584","MEAN_MOTION_DDOT":"0.0000000000000","TLE_LINE2":"2 48476  53.0536  90.6390 0001896  95.2938 340.3109 15.04774885 17344","EPHEMERIS_TYPE":"0","MEAN_MOTION_DOT":"-0.00004768","PERIOD":"95.695","ELEMENT_SET_NO":"999","OBJECT_NAME":"STARLINK-2723","MEAN_MOTION":"15.04774885","COUNTRY_CODE":"US","RCS_SIZE":"LARGE","LAUNCH_DATE":"2021-05-09","MEAN_ELEMENT_THEORY":"SGP4","REV_AT_EPOCH":"1734","NORAD_CAT_ID":"48476","INCLINATION":"53.0536","MEAN_ANOMALY":"340.3109","PERIAPSIS":"550.885","REF_FRAME":"TEME","SITE":"AFETR"},{"EPHEMERIS_TYPE":"0","TLE_LINE2":"2 48478  53.0550  91.5982 0002292  96.5645  90.8491 15.06384847  3588","MEAN_MOTION_DDOT":"0.0000000000000","EPOCH":"2021-08-20T22:00:01.999584","MEAN_MOTION":"15.06384847","OBJECT_NAME":"STARLINK-2728","ELEMENT_SET_NO":"999","PERIOD":"95.593","MEAN_MOTION_DOT":"-0.00003765","NORAD_CAT_ID":"48478","LAUNCH_DATE":"2021-05-09","REV_AT_EPOCH":"358","MEAN_ELEMENT_THEORY":"SGP4","COUNTRY_CODE":"US","RCS_SIZE":"LARGE","SITE":"AFETR","REF_FRAME":"TEME","PERIAPSIS":"545.673","MEAN_ANOMALY":"90.8491","INCLINATION":"53.0550","ARG_OF_PERICENTER":"96.5645","APOAPSIS":"548.847","GP_ID":"183156767","FILE":"3100512","OBJECT_ID":"2021-040BC","DECAY_DATE":null,"OBJECT_TYPE":"PAYLOAD","ECCENTRICITY":"0.00022920","CLASSIFICATION_TYPE":"U","CENTER_NAME":"EARTH","RA_OF_ASC_NODE":"91.5982","SEMIMAJOR_AXIS":"6925.395","BSTAR":"-0.00023408000000","TIME_SYSTEM":"UTC","TLE_LINE1":"1 48478U 21040BC  21232.91668981 -.00003765  00000-0 -23408-3 0  9999"},{"MEAN_MOTION_DOT":"-0.00002414","OBJECT_NAME":"STARLINK-2755","MEAN_MOTION":"15.06402326","PERIOD":"95.592","ELEMENT_SET_NO":"999","EPOCH":"2021-08-20T22:00:01.999584","MEAN_MOTION_DDOT":"0.0000000000000","EPHEMERIS_TYPE":"0","TLE_LINE2":"2 48479  53.0548  91.5989 0002305  88.9186 118.4971 15.06402326  3586","INCLINATION":"53.0548","MEAN_ANOMALY":"118.4971","REF_FRAME":"TEME","SITE":"AFETR","PERIAPSIS":"545.610","RCS_SIZE":"LARGE","COUNTRY_CODE":"US","LAUNCH_DATE":"2021-05-09","MEAN_ELEMENT_THEORY":"SGP4","REV_AT_EPOCH":"358","NORAD_CAT_ID":"48479","FILE":"3100512","DECAY_DATE":null,"OBJECT_ID":"2021-040BD","GP_ID":"183156947","ARG_OF_PERICENTER":"88.9186","APOAPSIS":"548.803","BSTAR":"-0.00014319000000","TLE_LINE1":"1 48479U 21040BD  21232.91668981 -.00002414  00000-0 -14319-3 0  9991","TIME_SYSTEM":"UTC","SEMIMAJOR_AXIS":"6925.341","CLASSIFICATION_TYPE":"U","RA_OF_ASC_NODE":"91.5989","CENTER_NAME":"EARTH","OBJECT_TYPE":"PAYLOAD","ECCENTRICITY":"0.00023050"},{"MEAN_ANOMALY":"269.4026","INCLINATION":"53.0552","SITE":"AFETR","REF_FRAME":"TEME","PERIAPSIS":"545.716","MEAN_ELEMENT_THEORY":"SGP4","LAUNCH_DATE":"2021-05-09","REV_AT_EPOCH":"1584","COUNTRY_CODE":"US","RCS_SIZE":"LARGE","NORAD_CAT_ID":"48480","MEAN_MOTION_DOT":"0.00000744","OBJECT_NAME":"STARLINK-2690","MEAN_MOTION":"15.06391669","ELEMENT_SET_NO":"999","PERIOD":"95.593","EPOCH":"2021-08-20T16:38:18.756960","TLE_LINE2":"2 48480  53.0552 102.5947 0002199  90.7215 269.4026 15.06391669 15842","EPHEMERIS_TYPE":"0","MEAN_MOTION_DDOT":"0.0000000000000","BSTAR":"0.00006886000000","TLE_LINE1":"1 48480U 21040BE  21232.69327265  .00000744  00000-0  68860-4 0  9998","TIME_SYSTEM":"UTC","SEMIMAJOR_AXIS":"6925.374","CLASSIFICATION_TYPE":"U","CENTER_NAME":"EARTH","RA_OF_ASC_NODE":"102.5947","OBJECT_TYPE":"PAYLOAD","ECCENTRICITY":"0.00021990","FILE":"3100512","OBJECT_ID":"2021-040BE","DECAY_DATE":null,"GP_ID":"183157032","ARG_OF_PERICENTER":"90.7215","APOAPSIS":"548.762"},{"EPOCH":"2021-08-21T08:53:34.510848","MEAN_MOTION_DDOT":"0.0000000000000","TLE_LINE2":"2 48481  53.0521  99.5663 0002375  96.8594 263.2665 15.06393856 17227","EPHEMERIS_TYPE":"0","MEAN_MOTION_DOT":"-0.00001007","PERIOD":"95.593","ELEMENT_SET_NO":"999","MEAN_MOTION":"15.06393856","OBJECT_NAME":"STARLINK-2706","COUNTRY_CODE":"US","RCS_SIZE":"LARGE","MEAN_ELEMENT_THEORY":"SGP4","LAUNCH_DATE":"2021-05-09","REV_AT_EPOCH":"1722","NORAD_CAT_ID":"48481","INCLINATION":"53.0521","MEAN_ANOMALY":"263.2665","PERIAPSIS":"545.588","SITE":"AFETR","REF_FRAME":"TEME","APOAPSIS":"548.877","ARG_OF_PERICENTER":"96.8594","DECAY_DATE":null,"OBJECT_ID":"2021-040BF","FILE":"3100808","GP_ID":"183163898","RA_OF_ASC_NODE":"99.5663","CENTER_NAME":"EARTH","CLASSIFICATION_TYPE":"U","ECCENTRICITY":"0.00023750","OBJECT_TYPE":"PAYLOAD","TIME_SYSTEM":"UTC","TLE_LINE1":"1 48481U 21040BF  21233.37053832 -.00001007  00000-0 -48703-4 0  9990","BSTAR":"-0.00004870300000","SEMIMAJOR_AXIS":"6925.367"},{"INCLINATION":"53.0553","MEAN_ANOMALY":"264.9091","SITE":"AFETR","REF_FRAME":"TEME","PERIAPSIS":"545.774","RCS_SIZE":"LARGE","COUNTRY_CODE":"US","MEAN_ELEMENT_THEORY":"SGP4","LAUNCH_DATE":"2021-05-09","REV_AT_EPOCH":"1585","NORAD_CAT_ID":"48482","MEAN_MOTION_DOT":"0.00000850","OBJECT_NAME":"STARLINK-2525","MEAN_MOTION":"15.06388475","PERIOD":"95.593","ELEMENT_SET_NO":"999","EPOCH":"2021-08-20T18:24:28.737792","MEAN_MOTION_DDOT":"0.0000000000000","TLE_LINE2":"2 48482  53.0553 102.2683 0002130  95.2141 264.9091 15.06388475 15856","EPHEMERIS_TYPE":"0","BSTAR":"0.00007602200000","TLE_LINE1":"1 48482U 21040BG  21232.76699928  .00000850  00000-0  76022-4 0  9993","TIME_SYSTEM":"UTC","SEMIMAJOR_AXIS":"6925.384","CLASSIFICATION_TYPE":"U","RA_OF_ASC_NODE":"102.2683","CENTER_NAME":"EARTH","OBJECT_TYPE":"PAYLOAD","ECCENTRICITY":"0.00021300","FILE":"3100512","DECAY_DATE":null,"OBJECT_ID":"2021-040BG","GP_ID":"183157122","ARG_OF_PERICENTER":"95.2141","APOAPSIS":"548.724"},{"ARG_OF_PERICENTER":"90.5012","APOAPSIS":"548.801","GP_ID":"183164309","FILE":"3100810","DECAY_DATE":null,"OBJECT_ID":"2021-040BH","OBJECT_TYPE":"PAYLOAD","ECCENTRICITY":"0.00022620","CLASSIFICATION_TYPE":"U","RA_OF_ASC_NODE":"99.6013","CENTER_NAME":"EARTH","SEMIMAJOR_AXIS":"6925.369","BSTAR":"0.00006820900000","TLE_LINE1":"1 48483U 21040BH  21233.36043307  .00000734  00000-0  68209-4 0  9994","TIME_SYSTEM":"UTC","MEAN_MOTION_DDOT":"0.0000000000000","EPHEMERIS_TYPE":"0","TLE_LINE2":"2 48483  53.0554  99.6013 0002262  90.5012 269.6236 15.06393171 17220","EPOCH":"2021-08-21T08:39:01.417248","OBJECT_NAME":"STARLINK-2531","MEAN_MOTION":"15.06393171","PERIOD":"95.593","ELEMENT_SET_NO":"999","MEAN_MOTION_DOT":"0.00000734","NORAD_CAT_ID":"48483","RCS_SIZE":"LARGE","COUNTRY_CODE":"US","LAUNCH_DATE":"2021-05-09","MEAN_ELEMENT_THEORY":"SGP4","REV_AT_EPOCH":"1722","SITE":"AFETR","REF_FRAME":"TEME","PERIAPSIS":"545.668","INCLINATION":"53.0554","MEAN_ANOMALY":"269.6236"},{"ARG_OF_PERICENTER":"77.8885","APOAPSIS":"548.846","FILE":"3100681","DECAY_DATE":null,"OBJECT_ID":"2021-040BJ","GP_ID":"183161629","CLASSIFICATION_TYPE":"U","RA_OF_ASC_NODE":"100.8944","CENTER_NAME":"EARTH","OBJECT_TYPE":"PAYLOAD","ECCENTRICITY":"0.00023170","BSTAR":"0.00007233200000","TLE_LINE1":"1 48484U 21040BJ  21233.07197930  .00000795  00000-0  72332-4 0  9994","TIME_SYSTEM":"UTC","SEMIMAJOR_AXIS":"6925.377","EPOCH":"2021-08-21T01:43:39.011520","MEAN_MOTION_DDOT":"0.0000000000000","TLE_LINE2":"2 48484  53.0549 100.8944 0002317  77.8885 282.2363 15.06390788 17188","EPHEMERIS_TYPE":"0","MEAN_MOTION_DOT":"0.00000795","OBJECT_NAME":"STARLINK-2696","MEAN_MOTION":"15.06390788","PERIOD":"95.593","ELEMENT_SET_NO":"999","RCS_SIZE":"LARGE","COUNTRY_CODE":"US","LAUNCH_DATE":"2021-05-09","MEAN_ELEMENT_THEORY":"SGP4","REV_AT_EPOCH":"1718","NORAD_CAT_ID":"48484","INCLINATION":"53.0549","MEAN_ANOMALY":"282.2363","REF_FRAME":"TEME","SITE":"AFETR","PERIAPSIS":"545.637"},{"GP_ID":"183157212","FILE":"3100512","OBJECT_ID":"2021-040BK","DECAY_DATE":null,"ARG_OF_PERICENTER":"100.9014","APOAPSIS":"549.002","SEMIMAJOR_AXIS":"6925.359","BSTAR":"0.00032040000000","TLE_LINE1":"1 48485U 21040BK  21232.90336367  .00004493  00000-0  32040-3 0  9995","TIME_SYSTEM":"UTC","OBJECT_TYPE":"PAYLOAD","ECCENTRICITY":"0.00025680","CLASSIFICATION_TYPE":"U","CENTER_NAME":"EARTH","RA_OF_ASC_NODE":"101.6583","MEAN_MOTION":"15.06396739","OBJECT_NAME":"STARLINK-2500","ELEMENT_SET_NO":"999","PERIOD":"95.592","MEAN_MOTION_DOT":"0.00004493","TLE_LINE2":"2 48485  53.0558 101.6583 0002568 100.9014 259.2264 15.06396739 15877","EPHEMERIS_TYPE":"0","MEAN_MOTION_DDOT":"0.0000000000000","EPOCH":"2021-08-20T21:40:50.621088","REF_FRAME":"TEME","SITE":"AFETR","PERIAPSIS":"545.445","MEAN_ANOMALY":"259.2264","INCLINATION":"53.0558","NORAD_CAT_ID":"48485","LAUNCH_DATE":"2021-05-09","REV_AT_EPOCH":"1587","MEAN_ELEMENT_THEORY":"SGP4","RCS_SIZE":"LARGE","COUNTRY_CODE":"US"},{"NORAD_CAT_ID":"48486","RCS_SIZE":"LARGE","COUNTRY_CODE":"US","REV_AT_EPOCH":"1585","LAUNCH_DATE":"2021-05-09","MEAN_ELEMENT_THEORY":"SGP4","SITE":"AFETR","REF_FRAME":"TEME","PERIAPSIS":"545.600","INCLINATION":"53.0534","MEAN_ANOMALY":"266.8510","MEAN_MOTION_DDOT":"0.0000000000000","EPHEMERIS_TYPE":"0","TLE_LINE2":"2 48486  53.0534 102.2453 0002352  93.2748 266.8510 15.06395151 15857","EPOCH":"2021-08-20T18:35:04.642656","MEAN_MOTION":"15.06395151","OBJECT_NAME":"STARLINK-2496","PERIOD":"95.592","ELEMENT_SET_NO":"999","MEAN_MOTION_DOT":"-0.00000364","OBJECT_TYPE":"PAYLOAD","ECCENTRICITY":"0.00023520","CLASSIFICATION_TYPE":"U","RA_OF_ASC_NODE":"102.2453","CENTER_NAME":"EARTH","SEMIMAJOR_AXIS":"6925.363","BSTAR":"-0.00000550170000","TIME_SYSTEM":"UTC","TLE_LINE1":"1 48486U 21040BL  21232.77435929 -.00000364  00000-0 -55017-5 0  9991","ARG_OF_PERICENTER":"93.2748","APOAPSIS":"548.857","GP_ID":"183156768","FILE":"3100512","DECAY_DATE":null,"OBJECT_ID":"2021-040BL"}];
